{"fetched_at":"2026-07-06T18:35:59.463Z","source":"https://celestrak.org/NORAD/elements/gp.php?NAME=TIGER&FORMAT=JSON","constellation":"oq-technology","records":[{"OBJECT_NAME":"TIGER-8","OBJECT_ID":"2024-043Y","EPOCH":"2026-07-05T08:31:40.727136","CLASSIFICATION_TYPE":"U","MEAN_MOTION":15.45030108,"ECCENTRICITY":0.00086388,"INCLINATION":97.557,"RA_OF_ASC_NODE":335.7047,"ARG_OF_PERICENTER":132.863,"MEAN_ANOMALY":227.3345,"EPHEMERIS_TYPE":0,"NORAD_CAT_ID":59120,"ELEMENT_SET_NO":999,"REV_AT_EPOCH":13059,"BSTAR":0.00026691837,"MEAN_MOTION_DOT":0.00012525,"MEAN_MOTION_DDOT":0},{"OBJECT_NAME":"TIGER-7","OBJECT_ID":"2024-043AV","EPOCH":"2026-07-05T23:56:08.254464","CLASSIFICATION_TYPE":"U","MEAN_MOTION":15.49190565,"ECCENTRICITY":0.00068163,"INCLINATION":97.5508,"RA_OF_ASC_NODE":338.8275,"ARG_OF_PERICENTER":102.2892,"MEAN_ANOMALY":257.9122,"EPHEMERIS_TYPE":0,"NORAD_CAT_ID":59141,"ELEMENT_SET_NO":999,"REV_AT_EPOCH":13088,"BSTAR":0.00025357766,"MEAN_MOTION_DOT":0.00013732,"MEAN_MOTION_DDOT":0}]}
